QIANFAN-60              
1 62790U 25016F   25362.55564313  .00000176  00000+0  25340-3 0  9998
2 62790  88.9763 101.4421 0014016 298.7944  61.1799 13.50988846 49362
QIANFAN-61              
1 62791U 25016G   25362.58847237  .00000180  00000+0  26011-3 0  9992
2 62791  88.9830 101.6123 0012961 298.1827  61.8015 13.50985329 49383
QIANFAN-62              
1 62792U 25016H   25362.59262458  .00000182  00000+0  26341-3 0  9998
2 62792  88.9776 101.4718 0014342 298.4481  61.5225 13.50981949 49378
QIANFAN-63              
1 62793U 25016J   25362.54320056  .00000183  00000+0  26464-3 0  9990
2 62793  88.9784 101.4294 0014427 304.6464  55.3327 13.50980330 49403
QIANFAN-64              
1 62794U 25016K   25362.58436178  .00000187  00000+0  27055-3 0  9999
2 62794  88.9770 101.3972 0012323 296.7048  63.2841 13.50983690 49404
QIANFAN-65              
1 62795U 25016L   25362.58023171  .00000191  00000+0  27682-3 0  9996
2 62795  88.9766 101.4231 0012171 298.7001  61.2926 13.50983001 49386
QIANFAN-66              
1 62796U 25016M   25362.60906687  .00000192  00000+0  27917-3 0  9994
2 62796  88.9786 101.3934 0013263 293.4594  66.5163 13.50982199 49434
QIANFAN-67              
1 62797U 25016N   25362.61326894  .00000189  00000+0  27479-3 0  9991
2 62797  88.9776 101.4169 0013266 301.2964  58.6888 13.50986366 49400
QIANFAN-68              
1 62798U 25016P   25362.60493619  .00000196  00000+0  28527-3 0  9994
2 62798  88.9779 101.4636 0013308 299.2973  60.6848 13.50988771 49384
QIANFAN-69              
1 62799U 25016Q   25362.47326807  .00000184  00000+0  26652-3 0  9998
2 62799  88.9758 101.3431 0014067 300.9496  59.0272 13.50991496 49401
QIANFAN-70              
1 62800U 25016R   25362.56386578  .00000199  00000+0  28959-3 0  9990
2 62800  88.9779 101.4757 0013639 289.7956  70.1724 13.50982467 49378
QIANFAN-71              
1 62801U 25016S   25362.55967138  .00000184  00000+0  26730-3 0  9996
2 62801  88.9773 101.4546 0014011 304.6651  55.3179 13.50981934 49370
QIANFAN-72              
1 62802U 25016T   25362.57612319  .00000185  00000+0  26867-3 0  9999
2 62802  88.9764 101.4647 0017346 312.1808  47.7869 13.50981735 49364
QIANFAN-73              
1 63159U 25046A   25362.60329172  .00000203  00000+0  29598-3 0  9999
2 63159  88.9776 318.3812 0016997  78.1128 282.1928 13.50981488 49558
QIANFAN-74              
1 63160U 25046B   25362.58669472  .00000215  00000+0  31409-3 0  9995
2 63160  88.9776 318.2717 0001997  72.4964 287.6405 13.50978390 49617
QIANFAN-75              
1 63161U 25046C   25362.57395058  .00000242  00000+0  35538-3 0  9998
2 63161  88.9778 318.5069 0018140  80.7231 279.5971 13.50984022 49482
QIANFAN-76              
1 63162U 25046D   25362.57059844  .00000189  00000+0  27428-3 0  9998
2 63162  88.9776 318.4878 0015688  81.1614 279.1312 13.50983734 49497
QIANFAN-77              
1 63163U 25046E   25362.59710185  .00000569  00000+0  40441-3 0  9995
2 63163  88.9777 316.3620 0016444  37.0269 323.2039 13.96101141 50660
QIANFAN-78              
1 63164U 25046F   25362.61149292  .00000228  00000+0  33392-3 0  9993
2 63164  88.9776 318.3474 0017050  83.1294 277.1797 13.50982043 49577
QIANFAN-79              
1 63165U 25046G   25362.56606962  .00000226  00000+0  33099-3 0  9992
2 63165  88.9780 318.4602 0016754  81.6629 278.6421 13.50983830 49511
QIANFAN-80              
1 63166U 25046H   25362.58261284  .00000247  00000+0  36342-3 0  9996
2 63166  88.9777 318.1650 0015704  85.2964 274.9980 13.50981921 49679
QIANFAN-81              
1 63167U 25046J   25362.56070240  .00000238  00000+0  34893-3 0  9994
2 63167  88.9777 318.2351 0016753  75.2654 285.0353 13.51007871 49625
QIANFAN-82              
1 63168U 25046K   25362.59506934  .00000223  00000+0  32585-3 0  9992
2 63168  88.9777 318.2756 0014879  81.9967 278.2872 13.50980847 49614
QIANFAN-83              
1 63169U 25046L   25362.56772700  .00000272  00000+0  33730-3 0  9993
2 63169  88.9777 318.0237 0016184  68.6294 291.6588 13.61980453 49756
QIANFAN-84              
1 63170U 25046M   25362.54868566  .00000220  00000+0  32214-3 0  9998
2 63170  88.9777 318.4129 0017853  79.1572 281.1587 13.50991048 49531
QIANFAN-85              
1 63171U 25046N   25362.61962294  .00000253  00000+0  37358-3 0  9990
2 63171  88.9777 318.2773 0015236  80.9140 279.3734 13.50981844 49614
QIANFAN-86              
1 63172U 25046P   25362.62795415  .00000228  00000+0  33380-3 0  9994
2 63172  88.9779 318.1389 0013102  84.3845 275.8800 13.50981437 49690
QIANFAN-87              
1 63173U 25046Q   25362.59930944  .00000213  00000+0  31049-3 0  9993
2 63173  88.9775 318.2530 0013766  80.5636 279.7071 13.50978900 49625
QIANFAN-88              
1 63174U 25046R   25362.61556452  .00000231  00000+0  33890-3 0  9991
2 63174  88.9778 318.2062 0014139  87.4207 272.8562 13.50985555 49650
QIANFAN-89              
1 63175U 25046S   25362.50435544  .00000241  00000+0  35386-3 0  9991
2 63175  88.9777 318.4067 0018530  79.5986 280.7252 13.50981575 49531
QIANFAN-90              
1 63176U 25046T   25362.60715346  .00000219  00000+0  31978-3 0  9992
2 63176  88.9778 318.3685 0015469  77.7656 282.5226 13.50981675 49565
QIANFAN-91              
1 66033U 25233A   25362.60296462  .00000041  00000+0  40420-4 0  9994
2 66033  88.9962  60.4945 0015521 359.3315   0.7817 13.57807416 10144
QIANFAN-92              
1 66034U 25233B   25362.57929623  .00000024  00000+0  16173-4 0  9992
2 66034  88.9931  60.4936 0015544 359.9622   0.1530 13.58666847 10141
QIANFAN-93              
1 66035U 25233C   25362.60262988  .00000038  00000+0  35579-4 0  9997
2 66035  88.9950  60.4999 0014444   1.8019 358.3186 13.58522970 10146
QIANFAN-94              
1 66036U 25233D   25362.58201136  .00000165  00000+0  17780-3 0  9997
2 66036  88.9950  60.4798 0014921 356.5954   3.5103 13.68546625 10155
QIANFAN-95              
1 66037U 25233E   25362.64186914  .00000322  00000+0  18469-3 0  9991
2 66037  88.9948  60.2681 0013927 359.6190   0.4980 14.07040323 10273
QIANFAN-96              
1 66038U 25233F   25362.48172386  .00000028  00000+0  21575-4 0  9998
2 66038  88.9933  60.5196 0015063   1.5136 358.6062 13.58226231 10120
QIANFAN-97              
1 66039U 25233G   25362.56884002  .00000034  00000+0  29412-4 0  9998
2 66039  88.9949  60.4955 0015078   4.6843 355.4452 13.60599140 10140
QIANFAN-98              
1 66040U 25233H   25362.63458508  .00000189  00000+0  16227-3 0  9996
2 66040  88.9939  60.3765 0014273 359.0509   1.0630 13.82580814 10213
QIANFAN-99              
1 66041U 25233J   25362.59201960  .00000026  00000+0  18377-4 0  9999
2 66041  88.9968  60.4995 0016221   4.9195 355.2117 13.58212463 10145
QIANFAN-100             
1 66042U 25233K   25362.39506138  .00000015  00000+0  25799-5 0  9998
2 66042  88.9946  60.4349 0015054   3.9552 356.1726 13.69035044 10162
QIANFAN-101             
1 66043U 25233L   25362.58745439  .00000267  00000+0  10440-3 0  9993
2 66043  88.9946  60.2040 0014096 352.3214   7.7762 14.26684943 10307
QIANFAN-102             
1 66044U 25233M   25362.62593255  .00000155  00000+0  17116-3 0  9999
2 66044  88.9945  60.4673 0014431   0.7464 359.3715 13.66800333 10169
QIANFAN-103             
1 66045U 25233N   25362.59407252  .00000033  00000+0  27333-4 0  9995
2 66045  88.9948  60.4997 0014460   2.0301 358.0911 13.60898429 10148
QIANFAN-104             
1 66046U 25233P   25362.62543885  .00000165  00000+0  16946-3 0  9996
2 66046  88.9949  60.4686 0013897   4.5142 355.6143 13.71545372 10168
QIANFAN-105             
1 66047U 25233Q   25362.64610457  .00000237  00000+0  17956-3 0  9991
2 66047  88.9951  60.3989 0014991   0.2466 359.8713 13.90521839 10202
QIANFAN-106             
1 66048U 25233R   25362.60544952  .00000042  00000+0  40746-4 0  9992
2 66048  88.9941  60.4700 0014668 354.5304   5.5689 13.59659580 10152
QIANFAN-107             
1 66049U 25233S   25362.46472224  .00000034  00000+0  29802-4 0  9990
2 66049  88.9950  60.4990 0015645   0.7006 359.4169 13.59757425 10138
QIANFAN-108             
1 66050U 25233T   25362.59897923  .00000034  00000+0  27569-4 0  9991
2 66050  88.9945  60.4814 0014728   3.4316 356.6941 13.63791276 10150
